[{"OBJECT_NAME":"BANDWAGON-2 OBJECT D","OBJECT_ID":"2024-247D","EPOCH":"2026-03-09T12:32:33.670752","MEAN_MOTION":15.29076102,"ECCENTRICITY":0.00034883,"INCLINATION":44.9954,"RA_OF_ASC_NODE":115.671,"ARG_OF_PERICENTER":351.1453,"MEAN_ANOMALY":8.9368,"EPHEMERIS_TYPE":0,"CLASSIFICATION_TYPE":"U","NORAD_CAT_ID":62380,"ELEMENT_SET_NO":999,"REV_AT_EPOCH":6773,"BSTAR":0.00040119131,"MEAN_MOTION_DOT":0.00011259,"MEAN_MOTION_DDOT":0},{"OBJECT_NAME":"STARLINK-34590","OBJECT_ID":"2025-139M","EPOCH":"2026-03-09T12:36:45.895680","MEAN_MOTION":15.30190641,"ECCENTRICITY":0.00012551,"INCLINATION":53.1577,"RA_OF_ASC_NODE":128.1794,"ARG_OF_PERICENTER":77.9254,"MEAN_ANOMALY":282.1887,"EPHEMERIS_TYPE":0,"CLASSIFICATION_TYPE":"U","NORAD_CAT_ID":64675,"ELEMENT_SET_NO":999,"REV_AT_EPOCH":4025,"BSTAR":0.0009494248,"MEAN_MOTION_DOT":0.00027857,"MEAN_MOTION_DDOT":0}]
