BANDWAGON-2 OBJECT D    
1 62380U 24247D   26068.52261193  .00011259  00000+0  40119-3 0  9994
2 62380  44.9954 115.6710 0003488 351.1453   8.9368 15.29076102 67732
STARLINK-34590          
1 64675U 25139M   26068.52553120  .00027857  00000+0  94942-3 0  9992
2 64675  53.1577 128.1794 0001255  77.9254 282.1887 15.30190641 40254
